QIANFAN-81              
1 63167U 25046J   25346.19277471  .00000206  00000+0  30019-3 0  9991
2 63167  88.9762 319.9284 0016242 118.0040 242.2756 13.51002266 47410
QIANFAN-82              
1 63168U 25046K   25346.07868477  .00000189  00000+0  27389-3 0  9997
2 63168  88.9762 319.9841 0014213 124.7892 235.4599 13.50975604 47384
QIANFAN-83              
1 63169U 25046L   25346.11115889  .00000223  00000+0  27283-3 0  9997
2 63169  88.9763 319.7583 0015838 111.9242 248.3601 13.61974202 47515
QIANFAN-84              
1 63170U 25046M   25346.10649403  .00000147  00000+0  20938-3 0  9997
2 63170  88.9762 320.1139 0017249 122.4904 237.7917 13.50986578 47316
QIANFAN-85              
1 63171U 25046N   25346.17731294  .00000194  00000+0  28195-3 0  9990
2 63171  88.9762 319.9783 0014595 123.5901 236.6645 13.50976163 47391
QIANFAN-86              
1 63172U 25046P   25346.18564053  .00000199  00000+0  28862-3 0  9995
2 63172  88.9764 319.8395 0012392 126.4424 233.7871 13.50976007 47472
QIANFAN-87              
1 63173U 25046Q   25346.15696902  .00000168  00000+0  24126-3 0  9997
2 63173  88.9760 319.9543 0013141 122.6617 237.5803 13.50974006 47407
QIANFAN-88              
1 63174U 25046R   25346.17330080  .00000175  00000+0  25181-3 0  9992
2 63174  88.9763 319.9070 0013353 130.0222 230.2103 13.50980422 47431
